NORAD_CAT_ID,OBJECT_NAME,OBJECT_TYPE,EPOCH,MEAN_MOTION,ECCENTRICITY,INCLINATION,RA_OF_ASC_NODE,ARG_OF_PERICENTER,MEAN_ANOMALY,BSTAR,MEAN_MOTION_DOT,MEAN_MOTION_DDOT,TLE_LINE0,TLE_LINE1,TLE_LINE2,SEMIMAJOR_AXIS,PERIOD,APOGEE,PERIGEE,DECAYED
51803.0,STARLINK-3544,PAYLOAD,2023-10-10 10:00:46,15.08849488,0.000184,53.219,345.3115,101.3874,258.7325,0.00022949,3.367e-05,0.0,0 STARLINK-3544,1 51803U 22017AM  23283.41720945  .00003367  00000-0  22949-3 0  9997,2 51803  53.2190 345.3115 0001840 101.3874 258.7325 15.08849488 90879,6917.851,95.437,540.989,538.444,0.0
51803.0,STARLINK-3544,PAYLOAD,2023-10-10 11:36:09,15.08853581,0.0001805,53.219,345.0138,99.4063,260.7133,0.0003169,4.761e-05,0.0,0 STARLINK-3544,1 51803U 22017AM  23283.48344798  .00004761  00000-0  31690-3 0  9994,2 51803  53.2190 345.0138 0001805  99.4063 260.7133 15.08853581 90889,6917.839,95.437,540.953,538.455,0.0
51803.0,STARLINK-3544,PAYLOAD,2023-10-11 03:30:01,15.08839898,0.0001706,53.2192,342.0389,89.493,270.6258,9.8729e-05,1.284e-05,0.0,0 STARLINK-3544,1 51803U 22017AM  23284.14585269  .00001284  00000-0  98729-4 0  9992,2 51803  53.2192 342.0389 0001706  89.4930 270.6258 15.08839898 90982,6917.881,95.438,540.926,538.566,0.0
51803.0,STARLINK-3544,PAYLOAD,2023-10-11 11:26:57,15.08833323,0.0001607,53.2182,340.549,85.788,274.3295,-2.9386e-05,-7.56e-06,0.0,0 STARLINK-3544,1 51803U 22017AM  23284.47705597 -.00000756  00000-0 -29386-4 0  9994,2 51803  53.2182 340.5490 0001607  85.7880 274.3295 15.08833323 91036,6917.901,95.438,540.878,538.654,0.0
51803.0,STARLINK-3544,PAYLOAD,2023-10-12 09:42:21,15.08845037,0.0001392,53.2166,336.3865,88.6185,271.4967,0.00010854,1.44e-05,0.0,0 STARLINK-3544,1 51803U 22017AM  23285.40441472  .00001440  00000-0  10854-3 0  9995,2 51803  53.2166 336.3865 0001392  88.6185 271.4967 15.08845037 91172,6917.865,95.437,540.693,538.767,0.0
51803.0,STARLINK-3544,PAYLOAD,2023-10-13 03:11:36,15.08835616,0.0001507,53.2166,333.1179,79.9422,280.174,0.00037499,5.684e-05,0.0,0 STARLINK-3544,1 51803U 22017AM  23286.13306175  .00005684  00000-0  37499-3 0  9994,2 51803  53.2166 333.1179 0001507  79.9422 280.1740 15.08835616 91280,6917.894,95.438,540.801,538.716,0.0
51803.0,STARLINK-3544,PAYLOAD,2023-10-13 09:33:08,15.08842126,0.0001482,53.2167,331.9269,86.7948,273.3214,0.00022928,3.363e-05,0.0,0 STARLINK-3544,1 51803U 22017AM  23286.39801813  .00003363  00000-0  22928-3 0  9994,2 51803  53.2167 331.9269 0001482  86.7948 273.3214 15.08842126 91327,6917.874,95.437,540.764,538.714,0.0
51803.0,STARLINK-3544,PAYLOAD,2023-10-13 20:40:50,15.08845187,0.0001605,53.2167,329.8454,92.4418,267.6758,0.0001918,2.766e-05,0.0,0 STARLINK-3544,1 51803U 22017AM  23286.86169682  .00002766  00000-0  19180-3 0  9999,2 51803  53.2167 329.8454 0001605  92.4418 267.6758 15.08845187 91398,6917.865,95.437,540.84,538.619,0.0
51803.0,STARLINK-3544,PAYLOAD,2023-10-14 09:23:55,15.08851883,0.0001766,53.2165,327.4661,90.7188,269.4007,0.00019967,2.892e-05,0.0,0 STARLINK-3544,1 51803U 22017AM  23287.39161200  .00002892  00000-0  19967-3 0  9999,2 51803  53.2165 327.4661 0001766  90.7188 269.4007 15.08851883 91479,6917.844,95.437,540.931,538.487,0.0
51803.0,STARLINK-3544,PAYLOAD,2023-10-14 12:34:41,15.08856278,0.0001845,53.217,326.87,93.5279,266.5924,0.00022106,3.233e-05,0.0,0 STARLINK-3544,1 51803U 22017AM  23287.52408860  .00003233  00000-0  22106-3 0  9999,2 51803  53.2170 326.8700 0001845  93.5279 266.5924 15.08856278 91493,6917.831,95.437,540.972,538.419,0.0
51803.0,STARLINK-3544,PAYLOAD,2023-10-15 02:53:10,15.08828102,0.0001541,53.216,324.1946,91.757,268.3599,-8.1339e-05,-1.582e-05,0.0,0 STARLINK-3544,1 51803U 22017AM  23288.12026474 -.00001582  00000-0 -81339-4 0  9994,2 51803  53.2160 324.1946 0001541  91.7570 268.3599 15.08828102 91585,6917.917,95.438,540.848,538.716,0.0
51803.0,STARLINK-3544,PAYLOAD,2023-10-15 09:14:43,15.08832523,0.0001553,53.2162,323.0054,95.0452,265.0718,-7.6211e-06,-4.09e-06,0.0,0 STARLINK-3544,1 51803U 22017AM  23288.38522406 -.00000409  00000-0 -76211-5 0  9999,2 51803  53.2162 323.0054 0001553  95.0452 265.0718 15.08832523 91628,6917.903,95.438,540.843,538.694,0.0
51803.0,STARLINK-3544,PAYLOAD,2023-10-16 07:30:07,15.08845675,0.0001614,53.2164,318.8422,92.6091,267.5086,0.00028381,4.232e-05,0.0,0 STARLINK-3544,1 51803U 22017AM  23289.31258127  .00004232  00000-0  28381-3 0  9998,2 51803  53.2164 318.8422 0001614  92.6091 267.5086 15.08845675 91763,6917.863,95.437,540.845,538.611,0.0
51803.0,STARLINK-3544,PAYLOAD,2023-10-16 09:05:30,15.08850617,0.0001589,53.2165,318.5451,92.8134,267.304,0.0003925,5.966e-05,0.0,0 STARLINK-3544,1 51803U 22017AM  23289.37881995  .00005966  00000-0  39250-3 0  9991,2 51803  53.2165 318.5451 0001589  92.8134 267.3040 15.08850617 91775,6917.848,95.437,540.812,538.614,0.0
51803.0,STARLINK-3544,PAYLOAD,2023-10-17 08:56:17,15.08842868,0.0001631,53.2166,314.0853,94.8991,265.2188,0.00021482,3.133e-05,0.0,0 STARLINK-3544,1 51803U 22017AM  23290.37242382  .00003133  00000-0  21482-3 0  9996,2 51803  53.2166 314.0853 0001631  94.8991 265.2188 15.08842868 91920,6917.872,95.437,540.865,538.608,0.0
51803.0,STARLINK-3544,PAYLOAD,2023-10-17 12:07:03,15.08847733,0.0001624,53.217,313.4896,91.1397,268.9781,0.00027686,4.122e-05,0.0,0 STARLINK-3544,1 51803U 22017AM  23290.50490225  .00004122  00000-0  27686-3 0  9993,2 51803  53.2170 313.4896 0001624  91.1397 268.9781 15.08847733 91944,6917.857,95.437,540.845,538.598,0.0
51803.0,STARLINK-3544,PAYLOAD,2023-10-18 00:50:08,15.0884331,0.0001771,53.2167,311.1095,88.2784,271.8411,9.5196e-05,1.227e-05,0.0,0 STARLINK-3544,1 51803U 22017AM  23291.03482178  .00001227  00000-0  95196-4 0  9995,2 51803  53.2167 311.1095 0001771  88.2784 271.8411 15.08843310 92026,6917.87,95.437,540.96,538.51,0.0
51803.0,STARLINK-3544,PAYLOAD,2023-10-18 05:36:17,15.08844437,0.0001725,53.217,310.2176,89.189,270.9299,0.00015927,2.248e-05,0.0,0 STARLINK-3544,1 51803U 22017AM  23291.23354114  .00002248  00000-0  15927-3 0  9992,2 51803  53.2170 310.2176 0001725  89.1890 270.9299 15.08844437 92055,6917.867,95.437,540.925,538.538,0.0
51803.0,STARLINK-3544,PAYLOAD,2023-10-19 10:13:14,15.08847796,0.0001862,53.2183,304.8638,81.6274,278.4929,0.00030568,4.581e-05,0.0,0 STARLINK-3544,1 51803U 22017AM  23292.42586179  .00004581  00000-0  30568-3 0  9992,2 51803  53.2183 304.8638 0001862  81.6274 278.4929 15.08847796 92230,6917.857,95.437,541.01,538.433,0.0
51803.0,STARLINK-3544,PAYLOAD,2023-10-19 18:10:10,15.08841498,0.0001586,53.2157,303.3782,90.7843,269.3331,0.00010046,1.311e-05,0.0,0 STARLINK-3544,1 51803U 22017AM  23292.75706289  .00001311  00000-0  10046-3 0  9991,2 51803  53.2157 303.3782 0001586  90.7843 269.3331 15.08841498 92285,6917.876,95.437,540.838,538.644,0.0
51803.0,STARLINK-3544,PAYLOAD,2023-10-20 06:53:15,15.08839113,0.0001917,53.2171,301.0004,86.5679,273.5532,5.0973e-05,5.23e-06,0.0,0 STARLINK-3544,1 51803U 22017AM  23293.28698582  .00000523  00000-0  50973-4 0  9994,2 51803  53.2171 301.0004 0001917  86.5679 273.5532 15.08839113 92361,6917.883,95.438,541.074,538.422,0.0
51803.0,STARLINK-3544,PAYLOAD,2023-10-21 06:44:02,15.08841084,0.0001724,53.2168,296.5386,98.8495,261.2692,5.6237e-05,6.07e-06,0.0,0 STARLINK-3544,1 51803U 22017AM  23294.28058778  .00000607  00000-0  56237-4 0  9994,2 51803  53.2168 296.5386 0001724  98.8495 261.2692 15.08841084 92514,6917.877,95.437,540.935,538.549,0.0
51803.0,STARLINK-3544,PAYLOAD,2023-10-21 17:51:44,15.08840839,0.0001714,53.2166,294.4567,99.9888,260.1298,7.2566e-05,8.67e-06,0.0,0 STARLINK-3544,1 51803U 22017AM  23294.74426853  .00000867  00000-0  72566-4 0  9999,2 51803  53.2166 294.4567 0001714  99.9888 260.1298 15.08840839 92581,6917.878,95.438,540.929,538.557,0.0
51803.0,STARLINK-3544,PAYLOAD,2023-10-22 06:34:49,15.08847527,0.0001791,53.2174,292.0782,103.0218,257.0974,0.00027787,4.138e-05,0.0,0 STARLINK-3544,1 51803U 22017AM  23295.27418567  .00004138  00000-0  27787-3 0  9990,2 51803  53.2174 292.0782 0001791 103.0218 257.0974 15.08847527 92668,6917.857,95.437,540.961,538.483,0.0
51803.0,STARLINK-3544,PAYLOAD,2023-10-23 03:14:50,15.08840009,0.0001566,53.2174,288.2108,103.4665,256.6502,0.00011405,1.528e-05,0.0,0 STARLINK-3544,1 51803U 22017AM  23296.13531079  .00001528  00000-0  11405-3 0  9990,2 51803  53.2174 288.2108 0001566 103.4665 256.6502 15.08840009 92791,6917.88,95.438,540.829,538.662,0.0
51803.0,STARLINK-3544,PAYLOAD,2023-10-23 06:25:37,15.08840264,0.0001673,53.2175,287.6138,98.7,261.4182,7.8627e-05,9.64e-06,0.0,0 STARLINK-3544,1 51803U 22017AM  23296.26778993  .00000964  00000-0  78627-4 0  9995,2 51803  53.2175 287.6138 0001673  98.7000 261.4182 15.08840264 92810,6917.88,95.438,540.902,538.587,0.0
51803.0,STARLINK-3544,PAYLOAD,2023-10-24 03:05:38,15.08836328,0.0001594,53.2167,283.7511,99.692,260.4252,1.3261e-05,-7.7e-07,0.0,0 STARLINK-3544,1 51803U 22017AM  23297.12891375 -.00000077  00000-0  13261-4 0  9990,2 51803  53.2167 283.7511 0001594  99.6920 260.4252 15.08836328 92943,6917.892,95.438,540.859,538.654,0.0
51803.0,STARLINK-3544,PAYLOAD,2023-10-24 06:16:24,15.08843225,0.0001534,53.2166,283.1593,100.8234,259.293,4.2405e-05,3.87e-06,0.0,0 STARLINK-3544,1 51803U 22017AM  23297.26139088  .00000387  00000-0  42405-4 0  9996,2 51803  53.2166 283.1593 0001534 100.8234 259.2930 15.08843225 92968,6917.871,95.437,540.797,538.674,0.0
51803.0,STARLINK-3544,PAYLOAD,2023-10-25 09:17:57,15.08840421,0.0001524,53.2162,278.1028,100.0268,260.0896,0.00013843,1.916e-05,0.0,0 STARLINK-3544,1 51803U 22017AM  23298.38747427  .00001916  00000-0  13843-3 0  9994,2 51803  53.2162 278.1028 0001524 100.0268 260.0896 15.08840421 93135,6917.879,95.438,540.798,538.69,0.0
51803.0,STARLINK-3544,PAYLOAD,2023-10-26 07:33:21,15.08844051,0.0001717,53.2171,273.9393,89.0605,271.0584,6.5009e-05,7.47e-06,0.0,0 STARLINK-3544,1 51803U 22017AM  23299.31483397  .00000747  00000-0  65009-4 0  9994,2 51803  53.2171 273.9393 0001717  89.0605 271.0584 15.08844051 93272,6917.868,95.437,540.921,538.545,0.0
